OBJECT_NAME,OBJECT_ID,EPOCH,MEAN_MOTION,ECCENTRICITY,INCLINATION,RA_OF_ASC_NODE,ARG_OF_PERICENTER,MEAN_ANOMALY,EPHEMERIS_TYPE,CLASSIFICATION_TYPE,NORAD_CAT_ID,ELEMENT_SET_NO,REV_AT_EPOCH,BSTAR,MEAN_MOTION_DOT,MEAN_MOTION_DDOT
GAOFEN-2,2014-049A,2026-07-17T05:50:50.667072,14.80927325,.00083598,98.0095,262.4201,128.8700,231.3260,0,U,40118,999,64368,-.29201891E-4,-.279E-5,0
BRITE-PL2 (HEWELIUSZ),2014-049B,2026-07-16T21:31:13.773216,14.94689258,.00141718,97.9120,310.1310,16.6624,343.5058,0,U,40119,999,64588,.50494606E-4,.489E-5,0
GSAT0201 (GALILEO 5),2014-050A,2026-07-15T23:35:44.117664,1.85519415,.16787096,48.8430,272.2541,180.5497,179.3011,0,U,40128,999,7885,0,-.37E-6,0
GSAT0202 (GALILEO 6),2014-050B,2026-07-16T18:39:41.833728,1.85520382,.1679996,48.8597,271.3072,181.2736,178.2966,0,U,40129,999,8103,0,-.44E-6,0
LING QIAO,2014-051A,2026-07-17T06:41:32.163072,14.30274885,.00220289,98.7060,200.0973,85.0434,275.3262,0,U,40136,999,61930,.15535655E-4,-.4E-7,0
CHUANGXIN 1-04 (CX-1-04),2014-051B,2026-07-17T07:24:17.626176,14.30416687,.00235617,98.7059,200.1778,85.9392,274.4483,0,U,40137,999,61885,.41391417E-4,.63E-6,0
ASIASAT 6,2014-052A,2026-07-16T19:01:27.464736,1.00269746,.00008253,0.0139,75.5358,81.4123,182.9369,0,U,40141,999,4337,0,-.373E-5,0
YAOGAN-21,2014-053A,2026-07-17T07:32:59.191008,15.26776471,.00075395,97.1453,237.2624,0.1123,0.0117,0,U,40143,999,65955,.1422827E-3,.3678E-4,0
OPTUS 10,2014-054A,2026-07-16T20:54:24.056928,1.00270151,.00017872,0.0876,45.0717,63.9839,295.2441,0,U,40146,999,4332,0,-.158E-5,0
MEASAT-3B,2014-054B,2026-07-17T06:51:45.353376,1.00272962,.00028253,0.0247,353.8087,83.9607,51.7835,0,U,40147,999,4321,0,-.252E-5,0
SJ-11-07,2014-059A,2026-07-17T07:31:54.192288,14.63766024,.00118887,97.9931,266.7092,59.3778,300.8595,0,U,40261,999,62932,.43365696E-4,.18E-5,0
HIMAWARI-8,2014-060A,2026-07-17T07:05:51.501408,1.00270919,.00011495,0.0173,29.0357,137.0277,16.1819,0,U,40267,999,4306,0,-.286E-5,0
IRNSS-1C,2014-061A,2026-07-15T19:57:21.752928,1.00272233,.00220694,6.5880,88.3869,5.5373,222.1370,0,U,40269,999,4297,0,-.176E-5,0
INTELSAT 30 (IS-30),2014-062A,2026-07-17T05:58:42.937248,1.00274421,.00015552,0.0190,56.6019,335.0842,258.0090,0,U,40271,999,709,0,-.161E-5,0
ARSAT 1,2014-062B,2026-07-17T06:05:19.802688,1.00272674,.0001842,0.0597,272.3217,196.0299,206.2343,0,U,40272,999,4292,0,-.27E-5,0
YAOGAN-22,2014-063A,2026-07-16T22:07:09.975072,13.15531565,.00068878,100.7764,349.6935,121.5365,238.6420,0,U,40275,999,56372,.41543685E-4,-.31E-6,0
EUTELSAT 53A,2014-064A,2026-07-17T06:35:38.864832,1.00272724,.00017864,0.0167,4.5585,195.5279,246.9172,0,U,40277,999,4187,0,.88E-6,0
SJ-11-08,2014-066A,2026-07-17T08:24:48.709728,14.66202567,.00129188,98.3559,343.7262,133.0772,227.1514,0,U,40286,999,62563,-.9850417E-5,-.105E-5,0
NAVSTAR 72 (USA 258),2014-068A,2026-07-15T20:09:44.716896,2.00553234,.0067414,57.0073,29.8518,72.3241,288.4563,0,U,40294,999,8578,0,-.72E-6,0
MERIDIAN 7,2014-069A,2026-07-16T14:19:20.445024,2.00597959,.6637787,63.4498,212.4554,270.3723,19.8368,0,U,40296,999,8582,0,.263E-5,0
ASNARO,2014-070A,2026-07-17T06:02:19.343328,15.19397391,.0004829,97.3442,273.5578,83.2912,276.8872,0,U,40298,999,64857,.19172442E-3,.3992E-4,0
YAOGAN-24,2014-072A,2026-07-17T07:32:33.732384,14.76118768,.00147623,98.1530,335.9088,162.9578,197.2129,0,U,40310,999,62816,-.12523548E-4,-.14E-5,0
COSMOS 2501 [GLONASS-K],2014-075A,2026-07-14T01:09:44.871264,2.13101105,.0022586,63.6185,189.4424,212.6579,147.2095,0,U,40315,999,9042,0,.65E-6,0
GSAT-16,2014-078A,2026-07-16T20:25:34.320288,1.00270255,.00075089,0.0227,60.5515,34.4329,201.1845,0,U,40332,999,4240,0,0,0
DIRECTV 14,2014-078B,2026-07-16T20:29:44.349792,1.00271035,.00005216,0.0102,43.3103,316.5446,143.0174,0,U,40333,999,4234,0,-.136E-5,0
CBERS 4,2014-079A,2026-07-17T06:54:23.563008,14.35516158,.00007008,98.3514,254.1726,56.3784,303.7469,0,U,40336,999,60827,.17790876E-4,.9E-7,0
YAOGAN-25 01A,2014-080A,2026-07-17T07:25:14.853216,13.45414050,.0369338,63.3849,233.1713,9.2805,351.4804,0,U,40338,999,56971,.67632539E-4,-.3E-6,0
YAOGAN-25 01B,2014-080B,2026-07-17T07:07:21.957024,13.45435678,.03696133,63.3859,233.3271,9.0755,351.6714,0,U,40339,999,56968,.10063359E-3,-.1E-7,0
YAOGAN-25 01C,2014-080C,2026-07-17T05:46:13.113120,13.45349953,.03695614,63.3842,233.8649,9.7506,351.0441,0,U,40340,999,56979,.19370386E-4,-.73E-6,0
YAMAL 401,2014-082A,2026-07-17T03:26:08.725920,1.00270354,.00004052,0.0157,105.2530,11.3958,319.7792,0,U,40345,999,4221,0,-.238E-5,0
O3B FM10,2014-083A,2026-07-16T17:50:14.265024,5.00115529,.0004802,0.0408,347.1886,114.2162,258.6450,0,U,40348,999,21137,0,-.25E-6,0
O3B FM11,2014-083B,2026-07-17T03:44:06.520992,5.00115555,.00025248,0.0551,351.1098,107.2560,261.6588,0,U,40349,999,21141,0,-.25E-6,0
O3B FM12,2014-083C,2026-07-17T04:22:58.298016,5.00115940,.00024827,0.0542,351.3879,121.3431,247.2912,0,U,40350,999,21141,0,-.25E-6,0
O3B FM9,2014-083D,2026-07-17T05:01:36.088608,5.00116019,.00026743,0.0560,350.2163,123.2972,246.5106,0,U,40351,999,21157,0,-.25E-6,0
COSMOS 2502,2014-086A,2026-07-17T06:22:37.007040,13.97827388,.00077108,67.1547,294.0222,252.1116,107.9129,0,U,40358,999,58815,.22146092E-3,.238E-5,0
YAOGAN-26,2014-088A,2026-07-17T07:44:08.016000,15.48508388,.00016055,97.0648,197.8515,328.8917,31.2240,0,U,40362,999,64236,.33700673E-3,.17853E-3,0
ASTRA 2G,2014-089A,2026-07-17T06:33:47.076192,1.00269419,.00045181,0.0550,32.2790,43.4087,346.0287,0,U,40364,999,4226,0,.14E-5,0
FENGYUN 2G,2014-090A,2026-07-17T01:46:13.605312,1.00280117,.00041905,5.7125,72.4526,173.4964,174.8761,0,U,40367,999,4229,0,-.314E-5,0
MUOS-3,2015-002A,2026-07-17T05:43:02.824032,1.00273405,.0053565,4.5770,43.6321,176.9709,144.6918,0,U,40374,999,4188,0,-.14E-5,0
SMAP,2015-003A,2026-07-17T05:36:23.079744,14.63390045,.00016138,98.1285,204.9036,94.1618,265.9769,0,U,40376,999,61201,.40492668E-4,.162E-5,0
INMARSAT 5-F2,2015-005A,2026-07-16T12:01:38.586720,1.00269912,.00005265,0.0189,40.2027,72.1539,307.3765,0,U,40384,999,4128,0,-.296E-5,0
COSMOS 2503,2015-009A,2026-07-16T19:38:51.725472,15.06674458,.00170098,97.8292,255.0251,147.2761,212.9523,0,U,40420,999,62339,.44086148E-4,.59E-5,0
ABS-3A,2015-010A,2026-07-17T06:24:55.425024,1.00270306,.00015996,0.0119,46.5240,18.3177,323.5035,0,U,40424,999,4167,0,-.37E-6,0
EUTELSAT 115 WEST B,2015-010B,2026-07-16T14:29:08.446272,1.00271664,.00003634,0.0097,194.0596,270.3911,292.3521,0,U,40425,999,4167,0,-.35E-6,0
MMS 1,2015-011A,2026-07-17T06:00:02.000160,0.28341126,.83028067,72.4730,348.4255,168.1015,125.0935,0,U,40482,999,136,0,-.1355E-4,0
MMS 2,2015-011B,2026-07-17T06:00:02.000160,0.28341068,.83056193,72.4769,348.4245,168.1043,125.0805,0,U,40483,999,136,0,-.1356E-4,0
MMS 3,2015-011C,2026-07-17T06:00:02.000160,0.28341077,.8303989,72.4767,348.4363,168.1120,125.0546,0,U,40484,999,133,0,-.1355E-4,0
MMS 4,2015-011D,2026-07-17T06:00:02.000160,0.28341107,.83039408,72.4722,348.4198,168.1219,125.0500,0,U,40485,999,136,0,-.1355E-4,0
EXPRESS-AM7,2015-012A,2026-07-17T06:37:09.253056,1.00271530,.00028069,0.0150,59.6201,62.8306,311.9029,0,U,40505,999,4130,0,.141E-5,0
NAVSTAR 73 (USA 260),2015-013A,2026-07-16T11:31:30.494784,2.00549572,.0110409,53.1660,202.9660,40.3942,320.4327,0,U,40534,999,8241,0,.4E-6,0
KOMPSAT-3A,2015-014A,2026-07-17T07:09:39.047040,15.55513388,.00559842,97.6896,191.8981,68.3170,292.4032,0,U,40536,999,62649,.25565799E-3,.1864E-3,0
GSAT0203 (GALILEO 7),2015-017A,2026-07-16T13:00:22.132512,1.70476220,.00026818,56.7763,340.7964,255.3673,104.5898,0,U,40544,999,6970,0,-.103E-5,0
GSAT0204 (GALILEO 8),2015-017B,2026-07-16T19:08:49.645248,1.70475714,.00028295,56.7840,340.8081,234.6469,125.3139,0,U,40545,999,3275,0,-.103E-5,0
BEIDOU-3S IGSO-1S,2015-019A,2026-07-02T19:12:21.705408,1.00680073,.00768606,49.1798,295.2769,219.1125,144.2493,0,U,40549,999,4123,0,-.19E-5,0
GONETS-M 11,2015-020A,2026-07-17T06:36:37.940832,12.42878509,.00153445,82.4863,12.2383,298.4628,61.4906,0,U,40552,999,51247,-.40506624E-3,-.46E-6,0
GONETS-M 12,2015-020B,2026-07-17T05:57:59.736384,12.42891818,.00142332,82.4896,13.3869,282.3181,77.6305,0,U,40553,999,51246,-.70234352E-3,-.88E-6,0
GONETS-M 13,2015-020C,2026-07-17T07:16:26.836896,12.42872213,.00128084,82.4859,11.9592,266.0253,93.9362,0,U,40554,999,51244,.52082595E-3,.82E-6,0
COSMOS 2504,2015-020D,2026-07-17T05:56:04.744032,13.61395966,.06073693,82.5152,208.0592,192.4729,166.0803,0,U,40555,999,55428,.56639144E-4,.17E-5,0
THOR 7,2015-022A,2026-07-17T06:25:32.865600,1.00273964,.00023672,0.0399,255.3314,221.3719,274.1204,0,U,40613,999,4111,0,-.18E-6,0
TURKMENALEM52E/MONACOSAT,2015-023A,2026-07-17T04:39:38.704608,1.00272159,.00026966,0.0364,85.3919,37.5900,293.9429,0,U,40617,999,4114,0,.94E-6,0
DIRECTV 15,2015-026A,2026-07-16T14:32:38.111424,1.00268719,.00002639,0.0230,76.6558,264.8032,68.2365,0,U,40663,999,4075,0,-.113E-5,0
SKY MEXICO-1,2015-026B,2026-07-17T06:03:19.995264,1.00273057,.00023237,0.0128,66.4974,66.4134,174.1894,0,U,40664,999,4075,0,-.244E-5,0
SENTINEL-2A,2015-028A,2026-07-17T06:49:52.190976,14.30814040,.00012816,98.5679,272.7076,95.4745,264.6584,0,U,40697,999,57803,-.52036283E-4,-.18E-5,0
COSMOS 2506,2015-029A,2026-07-17T07:17:09.205728,14.54395876,.00085641,98.0445,237.9875,65.9290,294.2803,0,U,40699,999,58726,.5557482E-4,.193E-5,0
GAOFEN-8,2015-030A,2026-07-17T07:18:43.665984,15.46991283,.0009951,97.6888,33.5043,88.7551,271.4837,0,U,40701,999,61610,.18243516E-3,.9125E-4,0
DMC3-FM1,2015-032A,2026-07-17T07:25:50.244384,14.85768385,.00046933,97.6421,62.2975,329.6308,30.4636,0,U,40715,999,59438,.49130719E-4,.376E-5,0
DMC3-FM2,2015-032B,2026-07-17T06:20:25.883808,14.85777373,.00053358,97.6475,63.8484,335.5785,24.5177,0,U,40716,999,59437,.93727271E-4,.763E-5,0
DMC3-FM3,2015-032C,2026-07-17T06:54:20.159712,14.85762553,.00046176,97.6527,65.6430,337.7325,22.3690,0,U,40717,999,59438,-.37207355E-4,-.375E-5,0
CARBONITE 1 (CBNT-1),2015-032D,2026-07-17T07:54:57.286944,14.83672913,.00140444,97.6518,15.1369,189.6024,170.4924,0,U,40718,999,59381,.14682635E-3,.1163E-4,0
